OBJECT_NAME,OBJECT_ID,EPOCH,MEAN_MOTION,ECCENTRICITY,INCLINATION,RA_OF_ASC_NODE,ARG_OF_PERICENTER,MEAN_ANOMALY,EPHEMERIS_TYPE,CLASSIFICATION_TYPE,NORAD_CAT_ID,ELEMENT_SET_NO,REV_AT_EPOCH,BSTAR,MEAN_MOTION_DOT,MEAN_MOTION_DDOT
TIBA-1,2019-080A,2026-06-10T06:36:54.692064,1.00275021,.0002096,0.0511,351.4900,111.8791,290.0371,0,U,44800,999,2398,0,.173E-5,0
INMARSAT GX5,2019-080B,2026-06-10T13:20:26.703168,1.00270867,.00023239,0.0399,16.7974,60.7403,32.5221,0,U,44801,999,672,0,.92E-6,0
JCSAT-18 (KACIFIC 1),2019-091A,2026-06-10T12:17:31.979616,1.00268312,.00005645,0.0103,317.1063,267.8330,8.3179,0,U,44868,999,2394,0,0,0
ELEKTRO-L 3,2019-095A,2026-06-10T15:30:28.840032,1.00272173,.00013045,0.2388,81.3322,354.1597,132.0868,0,U,44903,999,2364,0,-.79E-6,0
SHIJIAN-20 (SJ-20),2019-097A,2026-06-10T10:04:47.206848,1.00275543,.0013823,4.9007,75.1442,53.8399,325.7999,0,U,44910,999,2363,0,.151E-5,0
TJS-5,2020-002A,2026-06-09T10:25:36.238080,1.00273083,.0007543,0.0306,290.7235,116.5233,114.4723,0,U,44978,999,2363,0,-.325E-5,0
GSAT-30,2020-005A,2026-06-09T03:27:54.806976,1.00269386,.00034085,0.0531,105.7770,339.2323,307.4766,0,U,45026,999,2342,0,-.147E-5,0
EUTELSAT KONNECT,2020-005B,2026-06-09T03:06:19.377216,1.00273234,.00014502,0.0706,99.2729,119.5425,92.5263,0,U,45027,999,2425,0,.67E-6,0
JCSAT-17,2020-013A,2026-06-10T10:36:38.660832,1.00271003,.00026751,5.3923,356.7964,80.0945,117.0860,0,U,45245,999,2316,0,-.305E-5,0
GEO-KOMPSAT-2B,2020-013B,2026-06-09T19:04:50.104704,1.00269964,.0000357,0.0421,156.7250,146.7417,9.1642,0,U,45246,999,2320,0,-.326E-5,0
BEIDOU-3 G2,2020-017A,2026-06-10T11:57:38.981376,1.00273310,.00024234,2.8496,47.2293,30.2866,80.8174,0,U,45344,999,2319,0,-.125E-5,0
AEHF-6 (USA 298),2020-022B,2026-06-10T12:13:54.827040,1.00274345,.00431683,2.5637,301.0480,17.2585,261.7891,0,U,45465,999,2294,0,-.281E-5,0
BEIDOU-3 G3,2020-040A,2026-06-10T15:53:21.054336,1.00270616,.00027075,2.4301,67.4356,338.2081,202.2908,0,U,45807,999,2200,0,-.337E-5,0
APSTAR-6D,2020-045A,2026-06-09T16:33:34.992576,1.00268962,.00021036,0.0502,104.3507,344.4035,191.7177,0,U,45863,999,2178,0,-.301E-5,0
KOREASAT 116,2020-048A,2026-06-10T10:25:15.526272,1.00271763,.00008685,0.0061,333.8130,100.9897,96.5328,0,U,45920,999,2157,0,-.344E-5,0
EXPRESS 103,2020-053A,2026-06-10T12:02:23.525952,1.00272413,.00004777,0.0160,276.2535,129.1397,130.5815,0,U,45985,999,2158,0,-.263E-5,0
EXPRESS 80,2020-053B,2026-06-10T01:26:24.586656,1.00272684,.00024078,0.0168,310.0755,206.4308,203.5163,0,U,45986,999,2156,0,-.119E-5,0
BSAT-4B,2020-056A,2026-06-09T12:08:55.597920,1.00273071,.00037947,0.0407,168.6637,305.2086,76.0750,0,U,46112,999,2131,0,-.333E-5,0
MEV-2,2020-056B,2026-06-10T09:51:48.453408,1.00269703,.00001966,0.0147,325.8765,212.9419,226.8974,0,U,46113,999,8044,0,.6E-7,0
GALAXY 30 (G-30),2020-056C,2026-06-10T12:41:50.398656,1.00273494,.00020952,0.0198,326.7998,108.4349,249.1236,0,U,46114,999,2122,0,.54E-6,0
GAOFEN-13 01,2020-071A,2026-06-10T15:33:55.947744,1.00274330,.00412662,0.5035,84.9192,123.4181,42.3470,0,U,46610,999,2085,0,-.345E-5,0
TIANTONG-1 2,2020-082A,2026-06-10T15:35:48.268608,1.00273058,.00011513,0.7995,326.5012,94.5252,196.8702,0,U,46916,999,2058,0,-.339E-5,0
LUCAS (JDRS-1),2020-089A,2026-06-10T15:01:07.000608,1.00272506,.00022184,0.0222,282.2497,147.6432,145.1711,0,U,47202,999,2035,0,-.218E-5,0
SXM-7,2020-096A,2026-06-10T12:53:11.810400,1.00270776,.00040439,0.0426,142.0409,345.7839,239.2290,0,U,47240,999,737,0,-.188E-5,0
CMS-01,2020-099A,2026-06-10T14:55:48.742752,1.00271899,.00036633,0.0806,98.0567,180.3506,287.5194,0,U,47256,999,2013,0,-.147E-5,0
TURKSAT 5A,2021-001A,2026-06-10T01:27:43.057728,1.00271427,.00001307,0.0226,63.8245,109.3639,138.1054,0,U,47306,999,1989,0,.172E-5,0
TIANTONG-1 3,2021-003A,2026-06-10T11:58:08.932800,1.00271972,.00033737,1.7619,338.8646,107.4745,73.6092,0,U,47321,999,1989,0,-.139E-5,0
TJS-6,2021-010A,2026-06-10T13:01:38.517888,1.00277205,.00036377,0.2686,264.4437,214.1162,154.3091,0,U,47613,999,1974,0,.62E-6,0
SBIRS GEO-5 (USA 315),2021-042A,2026-06-10T08:36:17.951904,1.00270920,.0001465,5.1129,329.0656,122.9551,29.5895,0,U,48618,999,1870,0,-.256E-5,0
FENGYUN 4B,2021-047A,2026-06-10T12:04:38.309952,1.00263042,.00051048,0.1357,76.6233,286.2317,181.6807,0,U,48808,999,1850,0,-.311E-5,0
SXM-8,2021-049A,2026-06-10T12:53:11.810400,1.00270512,.0004809,0.0183,8.6053,24.0600,334.3952,0,U,48838,999,1851,0,-.188E-5,0
TIANLIAN 1-05,2021-063A,2026-06-10T13:22:19.024032,1.00271134,.00007594,1.5758,80.7573,318.8667,76.6923,0,U,49011,999,1801,0,.125E-5,0
