TIBA-1                  
1 44800U 19080A   26161.27563301  .00000173  00000+0  00000+0 0  9996
2 44800   0.0511 351.4900 0002096 111.8791 290.0371  1.00275021 23984
INMARSAT GX5            
1 44801U 19080B   26161.55586462  .00000092  00000+0  00000+0 0  9991
2 44801   0.0399  16.7974 0002323  60.7403  32.5221  1.00270867  6725
JCSAT-18 (KACIFIC 1)    
1 44868U 19091A   26161.51217569  .00000000  00000+0  00000+0 0  9990
2 44868   0.0103 317.1063 0000564 267.8330   8.3179  1.00268312 23940
ELEKTRO-L 3             
1 44903U 19095A   26161.64616713 -.00000079  00000+0  00000+0 0  9999
2 44903   0.2388  81.3322 0001304 354.1597 132.0868  1.00272173 23640
SHIJIAN-20 (SJ-20)      
1 44910U 19097A   26161.41999082  .00000151  00000+0  00000+0 0  9997
2 44910   4.9007  75.1442 0013823  53.8399 325.7999  1.00275543 23632
TJS-5                   
1 44978U 20002A   26160.43444720 -.00000325  00000+0  00000+0 0  9998
2 44978   0.0306 290.7235 0007543 116.5233 114.4723  1.00273083 23631
GSAT-30                 
1 45026U 20005A   26160.14438434 -.00000147  00000+0  00000+0 0  9991
2 45026   0.0531 105.7770 0003408 339.2323 307.4766  1.00269386 23424
EUTELSAT KONNECT        
1 45027U 20005B   26160.12939094  .00000067  00000+0  00000+0 0  9998
2 45027   0.0706  99.2729 0001450 119.5425  92.5263  1.00273234 24250
JCSAT-17                
1 45245U 20013A   26161.44211413 -.00000305  00000+0  00000+0 0  9999
2 45245   5.3923 356.7964 0002675  80.0945 117.0860  1.00271003 23169
GEO-KOMPSAT-2B          
1 45246U 20013B   26160.79502436 -.00000326  00000+0  00000+0 0  9998
2 45246   0.0421 156.7250 0000357 146.7417   9.1642  1.00269964 23207
BEIDOU-3 G2             
1 45344U 20017A   26161.49836784 -.00000125  00000+0  00000+0 0  9992
2 45344   2.8496  47.2293 0002423  30.2866  80.8174  1.00273310 23194
AEHF-6 (USA 298)        
1 45465U 20022B   26161.50966235 -.00000281  00000+0  00000+0 0  9992
2 45465   2.5637 301.0480 0043168  17.2585 261.7891  1.00274345 22942
BEIDOU-3 G3             
1 45807U 20040A   26161.66204924 -.00000337  00000+0  00000+0 0  9991
2 45807   2.4301  67.4356 0002707 338.2081 202.2908  1.00270616 22008
APSTAR-6D               
1 45863U 20045A   26160.68998834 -.00000301  00000+0  00000+0 0  9990
2 45863   0.0502 104.3507 0002103 344.4035 191.7177  1.00268962 21789
KOREASAT 116            
1 45920U 20048A   26161.43420748 -.00000344  00000+0  00000+0 0  9992
2 45920   0.0061 333.8130 0000868 100.9897  96.5328  1.00271763 21571
EXPRESS 103             
1 45985U 20053A   26161.50166118 -.00000263  00000+0  00000+0 0  9995
2 45985   0.0160 276.2535 0000477 129.1397 130.5815  1.00272413 21589
EXPRESS 80              
1 45986U 20053B   26161.06000679 -.00000119  00000+0  00000+0 0  9996
2 45986   0.0168 310.0755 0002407 206.4308 203.5163  1.00272684 21560
BSAT-4B                 
1 46112U 20056A   26160.50619905 -.00000333  00000+0  00000+0 0  9995
2 46112   0.0407 168.6637 0003794 305.2086  76.0750  1.00273071 21314
MEV-2                   
1 46113U 20056B   26161.41097747  .00000006  00000+0  00000+0 0  9997
2 46113   0.0147 325.8765 0000196 212.9419 226.8974  1.00269703 80441
GALAXY 30 (G-30)        
1 46114U 20056C   26161.52905554  .00000054  00000+0  00000+0 0  9997
2 46114   0.0198 326.7998 0002095 108.4349 249.1236  1.00273494 21229
GAOFEN-13 01            
1 46610U 20071A   26161.64856421 -.00000345  00000+0  00000+0 0  9990
2 46610   0.5035  84.9192 0041266 123.4181  42.3470  1.00274330 20859
TIANTONG-1 2            
1 46916U 20082A   26161.64986422 -.00000339  00000+0  00000+0 0  9999
2 46916   0.7995 326.5012 0001151  94.5252 196.8702  1.00273058 20586
LUCAS (JDRS-1)          
1 47202U 20089A   26161.62577547 -.00000218  00000+0  00000+0 0  9993
2 47202   0.0222 282.2497 0002218 147.6432 145.1711  1.00272506 20350
SXM-7                   
1 47240U 20096A   26161.53694225 -.00000188  00000+0  00000+0 0  9992
2 47240   0.0426 142.0409 0004043 345.7839 239.2290  1.00270776  7375
CMS-01                  
1 47256U 20099A   26161.62209193 -.00000147  00000+0  00000+0 0  9993
2 47256   0.0806  98.0567 0003663 180.3506 287.5194  1.00271899 20135
TURKSAT 5A              
1 47306U 21001A   26161.06091502  .00000172  00000+0  00000+0 0  9991
2 47306   0.0226  63.8245 0000130 109.3639 138.1054  1.00271427 19898
TIANTONG-1 3            
1 47321U 21003A   26161.49871450 -.00000139  00000+0  00000+0 0  9999
2 47321   1.7619 338.8646 0003373 107.4745  73.6092  1.00271972 19898
TJS-6                   
1 47613U 21010A   26161.54280692  .00000062  00000+0  00000+0 0  9993
2 47613   0.2686 264.4437 0003637 214.1162 154.3091  1.00277205 19749
SBIRS GEO-5 (USA 315)   
1 48618U 21042A   26161.35854111 -.00000256  00000+0  00000+0 0  9992
2 48618   5.1129 329.0656 0001465 122.9551  29.5895  1.00270920 18704
FENGYUN 4B              
1 48808U 21047A   26161.50322118 -.00000311  00000+0  00000+0 0  9994
2 48808   0.1357  76.6233 0005104 286.2317 181.6807  1.00263042 18505
SXM-8                   
1 48838U 21049A   26161.53694225 -.00000188  00000+0  00000+0 0  9995
2 48838   0.0183   8.6053 0004809  24.0600 334.3952  1.00270512 18512
TIANLIAN 1-05           
1 49011U 21063A   26161.55716463  .00000125  00000+0  00000+0 0  9996
2 49011   1.5758  80.7573 0000759 318.8667  76.6923  1.00271134 18015
